UNKNOWN                 
1 81745U          26114.67607609  .00001388  00000+0  44679-3 0  9992
2 81745  70.9982  96.3664 0005372 333.8194  26.2670 14.41050811648897
UNKNOWN                 
1 81749U          26114.99779235  .00000087  00000+0  42836-3 0  9994
2 81749  99.6707 130.7762 0367267 278.6100 106.3287 12.77651728579026
UNKNOWN                 
1 81775U          26111.71380584  .00004441  00000+0  13280-2 0  9993
2 81775  82.9166 116.4035 0015767 189.2849 170.8056 14.42694405644009
UNKNOWN                 
1 81779U          26115.06843874  .00010887  00000+0  70774+0 0  9994
2 81779  54.4208  10.9960 1464296 166.2578 198.2920  9.34148236492779
UNKNOWN                 
1 81792U          26112.84242406  .00000162  00000+0  87533-4 0  9997
2 81792  65.8220 161.1337 0894881 224.6135 127.9447 13.11489841 97229
UNKNOWN                 
1 81812U          26115.30500069  .00000823  00000+0  54822-2 0  9993
2 81812 103.7883  49.1777 0337147  12.8903 348.0518 12.38813430557093
UNKNOWN                 
1 81816U          26113.00865369  .00000495  00000+0  41733-3 0  9992
2 81816  66.2386 328.7498 0168123 171.3206 189.0841 13.89844860627589
UNKNOWN                 
1 81819U          26115.23007420  .00000562  00000+0  41011-2 0  9991
2 81819 102.1718 219.2747 0037475 217.9869 141.8554 12.47921369564668
UNKNOWN                 
1 81824U          26114.00149091  .00002576  00000+0  88921-3 0  9991
2 81824  65.8435 335.7195 0047416 272.0921  87.4744 14.36891081643585
UNKNOWN                 
1 81833U          26115.13910192  .00000246  00000+0  86325-3 0  9992
2 81833  90.2465   5.8671 0028816  36.8138 323.4952 12.93791690469769
UNKNOWN                 
1 81838U          26108.78848112  .00003908  00000+0  84361-3 0  9998
2 81838  67.7580 293.6662 0042975 250.5397 125.4569 14.58747649651857
UNKNOWN                 
1 81844U          26115.13909053  .00003710  00000+0  12797-2 0  9998
2 81844  82.9116 173.1143 0062345 104.1480 256.6648 14.34572659642007
UNKNOWN                 
1 81845U          26115.26437050  .00002361  00000+0  25957-3 0  9990
2 81845  97.6788 302.5687 0085516 224.7088 311.8263 14.85935929669347
UNKNOWN                 
1 81864U          26107.34281095  .00000866  00000+0  34859-3 0  9996
2 81864  65.6680 133.1341 0770647 319.0729  35.4822 13.32850256567577
UNKNOWN                 
1 81865U          26115.47136388  .00001107  00000+0  89850-3 0  9994
2 81865  82.8006 285.4019 0061259 344.5098  45.0275 13.88377604627105
UNKNOWN                 
1 81893U          26115.42754209  .00000852  00000+0  91177-3 0  9999
2 81893 100.0596 111.2290 0018985 288.3192  71.5891 13.77009053622479
UNKNOWN                 
1 81899U          26115.30101131  .00002580  00000+0  60045-2 0  9991
2 81899 102.4146 246.2001 0172839 289.1902  69.0572 13.20685399596613
