[{"OBJECT_NAME":"UNKNOWN","OBJECT_ID":"","EPOCH":"2026-04-24T16:13:32.974176","MEAN_MOTION":14.41050811,"ECCENTRICITY":0.0005372,"INCLINATION":70.9982,"RA_OF_ASC_NODE":96.3664,"ARG_OF_PERICENTER":333.8194,"MEAN_ANOMALY":26.267,"EPHEMERIS_TYPE":0,"CLASSIFICATION_TYPE":"U","NORAD_CAT_ID":81745,"ELEMENT_SET_NO":999,"REV_AT_EPOCH":64889,"BSTAR":0.00044679,"MEAN_MOTION_DOT":1.388e-5,"MEAN_MOTION_DDOT":0},{"OBJECT_NAME":"UNKNOWN","OBJECT_ID":"","EPOCH":"2026-04-24T23:56:49.259040","MEAN_MOTION":12.77651728,"ECCENTRICITY":0.0367267,"INCLINATION":99.6707,"RA_OF_ASC_NODE":130.7762,"ARG_OF_PERICENTER":278.61,"MEAN_ANOMALY":106.3287,"EPHEMERIS_TYPE":0,"CLASSIFICATION_TYPE":"U","NORAD_CAT_ID":81749,"ELEMENT_SET_NO":999,"REV_AT_EPOCH":57902,"BSTAR":0.00042836,"MEAN_MOTION_DOT":8.7e-7,"MEAN_MOTION_DDOT":0},{"OBJECT_NAME":"UNKNOWN","OBJECT_ID":"","EPOCH":"2026-04-21T17:07:52.824576","MEAN_MOTION":14.42694405,"ECCENTRICITY":0.0015767,"INCLINATION":82.9166,"RA_OF_ASC_NODE":116.4035,"ARG_OF_PERICENTER":189.2849,"MEAN_ANOMALY":170.8056,"EPHEMERIS_TYPE":0,"CLASSIFICATION_TYPE":"U","NORAD_CAT_ID":81775,"ELEMENT_SET_NO":999,"REV_AT_EPOCH":64400,"BSTAR":0.001328,"MEAN_MOTION_DOT":4.441e-5,"MEAN_MOTION_DDOT":0},{"OBJECT_NAME":"UNKNOWN","OBJECT_ID":"","EPOCH":"2026-04-25T01:38:33.107136","MEAN_MOTION":9.34148236,"ECCENTRICITY":0.1464296,"INCLINATION":54.4208,"RA_OF_ASC_NODE":10.996,"ARG_OF_PERICENTER":166.2578,"MEAN_ANOMALY":198.292,"EPHEMERIS_TYPE":0,"CLASSIFICATION_TYPE":"U","NORAD_CAT_ID":81779,"ELEMENT_SET_NO":999,"REV_AT_EPOCH":49277,"BSTAR":0.70774,"MEAN_MOTION_DOT":0.00010887,"MEAN_MOTION_DDOT":0},{"OBJECT_NAME":"UNKNOWN","OBJECT_ID":"","EPOCH":"2026-04-22T20:13:05.438784","MEAN_MOTION":13.11489841,"ECCENTRICITY":0.0894881,"INCLINATION":65.822,"RA_OF_ASC_NODE":161.1337,"ARG_OF_PERICENTER":224.6135,"MEAN_ANOMALY":127.9447,"EPHEMERIS_TYPE":0,"CLASSIFICATION_TYPE":"U","NORAD_CAT_ID":81792,"ELEMENT_SET_NO":999,"REV_AT_EPOCH":9722,"BSTAR":8.7533e-5,"MEAN_MOTION_DOT":1.62e-6,"MEAN_MOTION_DDOT":0},{"OBJECT_NAME":"UNKNOWN","OBJECT_ID":"","EPOCH":"2026-04-25T07:19:12.059616","MEAN_MOTION":12.3881343,"ECCENTRICITY":0.0337147,"INCLINATION":103.7883,"RA_OF_ASC_NODE":49.1777,"ARG_OF_PERICENTER":12.8903,"MEAN_ANOMALY":348.0518,"EPHEMERIS_TYPE":0,"CLASSIFICATION_TYPE":"U","NORAD_CAT_ID":81812,"ELEMENT_SET_NO":999,"REV_AT_EPOCH":55709,"BSTAR":0.0054822,"MEAN_MOTION_DOT":8.23e-6,"MEAN_MOTION_DDOT":0},{"OBJECT_NAME":"UNKNOWN","OBJECT_ID":"","EPOCH":"2026-04-23T00:12:27.678816","MEAN_MOTION":13.8984486,"ECCENTRICITY":0.0168123,"INCLINATION":66.2386,"RA_OF_ASC_NODE":328.7498,"ARG_OF_PERICENTER":171.3206,"MEAN_ANOMALY":189.0841,"EPHEMERIS_TYPE":0,"CLASSIFICATION_TYPE":"U","NORAD_CAT_ID":81816,"ELEMENT_SET_NO":999,"REV_AT_EPOCH":62758,"BSTAR":0.00041733,"MEAN_MOTION_DOT":4.95e-6,"MEAN_MOTION_DDOT":0},{"OBJECT_NAME":"UNKNOWN","OBJECT_ID":"","EPOCH":"2026-04-25T05:31:18.410880","MEAN_MOTION":12.47921369,"ECCENTRICITY":0.0037475,"INCLINATION":102.1718,"RA_OF_ASC_NODE":219.2747,"ARG_OF_PERICENTER":217.9869,"MEAN_ANOMALY":141.8554,"EPHEMERIS_TYPE":0,"CLASSIFICATION_TYPE":"U","NORAD_CAT_ID":81819,"ELEMENT_SET_NO":999,"REV_AT_EPOCH":56466,"BSTAR":0.0041011,"MEAN_MOTION_DOT":5.62e-6,"MEAN_MOTION_DDOT":0},{"OBJECT_NAME":"UNKNOWN","OBJECT_ID":"","EPOCH":"2026-04-24T00:02:08.814624","MEAN_MOTION":14.36891081,"ECCENTRICITY":0.0047416,"INCLINATION":65.8435,"RA_OF_ASC_NODE":335.7195,"ARG_OF_PERICENTER":272.0921,"MEAN_ANOMALY":87.4744,"EPHEMERIS_TYPE":0,"CLASSIFICATION_TYPE":"U","NORAD_CAT_ID":81824,"ELEMENT_SET_NO":999,"REV_AT_EPOCH":64358,"BSTAR":0.00088921,"MEAN_MOTION_DOT":2.576e-5,"MEAN_MOTION_DDOT":0},{"OBJECT_NAME":"UNKNOWN","OBJECT_ID":"","EPOCH":"2026-04-25T03:20:18.405888","MEAN_MOTION":12.9379169,"ECCENTRICITY":0.0028816,"INCLINATION":90.2465,"RA_OF_ASC_NODE":5.8671,"ARG_OF_PERICENTER":36.8138,"MEAN_ANOMALY":323.4952,"EPHEMERIS_TYPE":0,"CLASSIFICATION_TYPE":"U","NORAD_CAT_ID":81833,"ELEMENT_SET_NO":999,"REV_AT_EPOCH":46976,"BSTAR":0.00086325,"MEAN_MOTION_DOT":2.46e-6,"MEAN_MOTION_DDOT":0},{"OBJECT_NAME":"UNKNOWN","OBJECT_ID":"","EPOCH":"2026-04-18T18:55:24.768768","MEAN_MOTION":14.58747649,"ECCENTRICITY":0.0042975,"INCLINATION":67.758,"RA_OF_ASC_NODE":293.6662,"ARG_OF_PERICENTER":250.5397,"MEAN_ANOMALY":125.4569,"EPHEMERIS_TYPE":0,"CLASSIFICATION_TYPE":"U","NORAD_CAT_ID":81838,"ELEMENT_SET_NO":999,"REV_AT_EPOCH":65185,"BSTAR":0.00084361,"MEAN_MOTION_DOT":3.908e-5,"MEAN_MOTION_DDOT":0},{"OBJECT_NAME":"UNKNOWN","OBJECT_ID":"","EPOCH":"2026-04-25T03:20:17.421792","MEAN_MOTION":14.34572659,"ECCENTRICITY":0.0062345,"INCLINATION":82.9116,"RA_OF_ASC_NODE":173.1143,"ARG_OF_PERICENTER":104.148,"MEAN_ANOMALY":256.6648,"EPHEMERIS_TYPE":0,"CLASSIFICATION_TYPE":"U","NORAD_CAT_ID":81844,"ELEMENT_SET_NO":999,"REV_AT_EPOCH":64200,"BSTAR":0.0012797,"MEAN_MOTION_DOT":3.71e-5,"MEAN_MOTION_DDOT":0},{"OBJECT_NAME":"UNKNOWN","OBJECT_ID":"","EPOCH":"2026-04-25T06:20:41.611200","MEAN_MOTION":14.85935929,"ECCENTRICITY":0.0085516,"INCLINATION":97.6788,"RA_OF_ASC_NODE":302.5687,"ARG_OF_PERICENTER":224.7088,"MEAN_ANOMALY":311.8263,"EPHEMERIS_TYPE":0,"CLASSIFICATION_TYPE":"U","NORAD_CAT_ID":81845,"ELEMENT_SET_NO":999,"REV_AT_EPOCH":66934,"BSTAR":0.00025957,"MEAN_MOTION_DOT":2.361e-5,"MEAN_MOTION_DDOT":0},{"OBJECT_NAME":"UNKNOWN","OBJECT_ID":"","EPOCH":"2026-04-17T08:13:38.866080","MEAN_MOTION":13.32850256,"ECCENTRICITY":0.0770647,"INCLINATION":65.668,"RA_OF_ASC_NODE":133.1341,"ARG_OF_PERICENTER":319.0729,"MEAN_ANOMALY":35.4822,"EPHEMERIS_TYPE":0,"CLASSIFICATION_TYPE":"U","NORAD_CAT_ID":81864,"ELEMENT_SET_NO":999,"REV_AT_EPOCH":56757,"BSTAR":0.00034859,"MEAN_MOTION_DOT":8.66e-6,"MEAN_MOTION_DDOT":0},{"OBJECT_NAME":"UNKNOWN","OBJECT_ID":"","EPOCH":"2026-04-25T11:18:45.839232","MEAN_MOTION":13.88377604,"ECCENTRICITY":0.0061259,"INCLINATION":82.8006,"RA_OF_ASC_NODE":285.4019,"ARG_OF_PERICENTER":344.5098,"MEAN_ANOMALY":45.0275,"EPHEMERIS_TYPE":0,"CLASSIFICATION_TYPE":"U","NORAD_CAT_ID":81865,"ELEMENT_SET_NO":999,"REV_AT_EPOCH":62710,"BSTAR":0.0008985,"MEAN_MOTION_DOT":1.107e-5,"MEAN_MOTION_DDOT":0},{"OBJECT_NAME":"UNKNOWN","OBJECT_ID":"","EPOCH":"2026-04-25T10:15:39.636576","MEAN_MOTION":13.77009053,"ECCENTRICITY":0.0018985,"INCLINATION":100.0596,"RA_OF_ASC_NODE":111.229,"ARG_OF_PERICENTER":288.3192,"MEAN_ANOMALY":71.5891,"EPHEMERIS_TYPE":0,"CLASSIFICATION_TYPE":"U","NORAD_CAT_ID":81893,"ELEMENT_SET_NO":999,"REV_AT_EPOCH":62247,"BSTAR":0.00091177,"MEAN_MOTION_DOT":8.52e-6,"MEAN_MOTION_DDOT":0},{"OBJECT_NAME":"UNKNOWN","OBJECT_ID":"","EPOCH":"2026-04-25T07:13:27.377184","MEAN_MOTION":13.20685399,"ECCENTRICITY":0.0172839,"INCLINATION":102.4146,"RA_OF_ASC_NODE":246.2001,"ARG_OF_PERICENTER":289.1902,"MEAN_ANOMALY":69.0572,"EPHEMERIS_TYPE":0,"CLASSIFICATION_TYPE":"U","NORAD_CAT_ID":81899,"ELEMENT_SET_NO":999,"REV_AT_EPOCH":59661,"BSTAR":0.0060045,"MEAN_MOTION_DOT":2.58e-5,"MEAN_MOTION_DDOT":0}]
